[{"OBJECT_NAME":"TIANQI-31","OBJECT_ID":"2024-170C","EPOCH":"2026-03-09T19:56:33.224640","MEAN_MOTION":13.99125748,"ECCENTRICITY":0.00074343,"INCLINATION":44.861,"RA_OF_ASC_NODE":220.3339,"ARG_OF_PERICENTER":324.2667,"MEAN_ANOMALY":35.7666,"EPHEMERIS_TYPE":0,"CLASSIFICATION_TYPE":"U","NORAD_CAT_ID":61197,"ELEMENT_SET_NO":999,"REV_AT_EPOCH":7503,"BSTAR":0.00014351436,"MEAN_MOTION_DOT":8.1e-7,"MEAN_MOTION_DDOT":0},{"OBJECT_NAME":"DELTA 1 DEB","OBJECT_ID":"1978-026CB","EPOCH":"2026-03-09T13:25:54.333696","MEAN_MOTION":14.03741372,"ECCENTRICITY":0.00285811,"INCLINATION":99.2479,"RA_OF_ASC_NODE":82.3285,"ARG_OF_PERICENTER":20.4642,"MEAN_ANOMALY":102.2694,"EPHEMERIS_TYPE":0,"CLASSIFICATION_TYPE":"U","NORAD_CAT_ID":12234,"ELEMENT_SET_NO":999,"REV_AT_EPOCH":30792,"BSTAR":0.00028207168,"MEAN_MOTION_DOT":3.99e-6,"MEAN_MOTION_DDOT":0}]
